SWOT                    
1 54754U 22173A   22361.31856295  .00137808  00000+0  76186-1 0  9998
2 54754  77.5827 311.1959 0006774 340.4957  19.2457 14.10361179  1527
